ONEWEB-0102             
1 47258U 20100A   24170.45993742 -.00000267  00000+0 -77628-3 0  9995
2 47258  87.8940 135.7853 0002014  79.1160 281.0195 13.12441914169144
ONEWEB-0109             
1 47259U 20100B   24170.16311471 -.00000453  00000+0 -12936-2 0  9994
2 47259  87.8942 135.8089 0002053  80.1177 280.0183 13.12441956168930
ONEWEB-0110             
1 47260U 20100C   24169.88412757  .00000270  00000+0  71380-3 0  9996
2 47260  87.8931 135.8702 0002183  81.1270 279.0105 13.12443624169062
ONEWEB-0111             
1 47261U 20100D   24169.91494218  .00000062  00000+0  13815-3 0  9991
2 47261  87.8938 135.8599 0002063  81.2372 278.8990 13.12441675168900
ONEWEB-0114             
1 47262U 20100E   24170.17445771 -.00000257  00000+0 -75095-3 0  9998
2 47262  87.8935 135.8240 0001782  71.6934 288.4388 13.12442337168897
ONEWEB-0117             
1 47263U 20100F   24169.93763447 -.00000338  00000+0 -97431-3 0  9992
2 47263  87.8941 135.8463 0002126  84.3017 275.8354 13.12442074168877
ONEWEB-0118             
1 47264U 20100G   24170.42748471  .00000056  00000+0  12041-3 0  9998
2 47264  87.8940 135.7529 0001595  84.0489 276.0821 13.12443394169136
ONEWEB-0119             
1 47265U 20100H   24169.92142211 -.00000160  00000+0 -48114-3 0  9990
2 47265  87.8940 135.8918 0002121  82.9937 277.1433 13.12442449169042
